ONEWEB-0389             
1 50469U 21132A   25083.04910256  .00000086  00000+0  18918-3 0  9991
2 50469  87.9004  95.5324 0001854 104.3622 255.7715 13.17648657160094
ONEWEB-0390             
1 50470U 21132B   25083.50642324 -.00000019  00000+0 -82261-4 0  9993
2 50470  87.9005  95.4482 0001651  88.6197 271.5124 13.17649929160157
ONEWEB-0391             
1 50471U 21132C   25083.05247856  .00000084  00000+0  18346-3 0  9997
2 50471  87.9013  95.5448 0001606 119.8930 240.2361 13.17651852160099
ONEWEB-0392             
1 50472U 21132D   25083.00692280  .00000121  00000+0  27791-3 0  9994
2 50472  87.8997  95.5141 0001852 104.8606 255.2731 13.17650432160121
ONEWEB-0393             
1 50473U 21132E   25082.75225291  .00000065  00000+0  13459-3 0  9993
2 50473  87.9009  95.5697 0001863  97.2259 262.9085 13.17650673158798
ONEWEB-0394             
1 50474U 21132F   25082.92259473  .00000111  00000+0  24961-3 0  9994
2 50474  87.9069  64.9555 0001939  89.7229 270.4126 13.18688047162258
ONEWEB-0395             
1 50475U 21132G   25083.47387740 -.00000346  00000+0 -10121-2 0  9999
2 50475  87.8805 110.7393 0001689 100.6939 259.4379 13.11415031158042
ONEWEB-0396             
1 50476U 21132H   25082.91628464  .00000086  00000+0  18490-3 0  9996
2 50476  87.9074  64.9666 0001963  90.5669 269.5688 13.18686276163563
ONEWEB-0397             
1 50477U 21132J   25082.93050995  .00000027  00000+0  35724-4 0  9992
2 50477  87.9074  64.9653 0002111  89.4315 270.7059 13.18686831162271
ONEWEB-0398             
1 50478U 21132K   25082.83128981  .00000509  00000+0  13993-2 0  9990
2 50478  87.8801 110.8359 0001554  87.0286 273.1020 13.11415365156581
ONEWEB-0399             
1 50479U 21132L   25083.50440147  .00000041  00000+0  80097-4 0  9999
2 50479  87.8803 110.7232 0002219 101.8683 258.2694 13.11418328157942
ONEWEB-0400             
1 50480U 21132M   25082.90996066  .00000086  00000+0  18426-3 0  9995
2 50480  87.9065  64.9625 0001765  81.4320 278.7012 13.18687100162262
ONEWEB-0401             
1 50481U 21132N   25083.48375315  .00000064  00000+0  13066-3 0  9999
2 50481  87.9070  64.8412 0002229  86.7946 273.3441 13.18689001163620
ONEWEB-0402             
1 50482U 21132P   25082.91786354  .00000086  00000+0  18622-3 0  9993
2 50482  87.9067  64.9519 0002567  87.9606 272.1820 13.18686669163576
ONEWEB-0403             
1 50483U 21132Q   25082.94157204  .00000058  00000+0  11471-3 0  9997
2 50483  87.9069  64.9604 0001820  87.8257 272.3083 13.18687250162250
ONEWEB-0404             
1 50484U 21132R   25083.02796151 -.00000403  00000+0 -11739-2 0  9990
2 50484  87.8812 110.8127 0001925 106.2986 253.8353 13.11417665157968
ONEWEB-0405             
1 50485U 21132S   25083.48852031  .00000077  00000+0  16209-3 0  9994
2 50485  87.9074  64.8411 0002238  89.9367 270.2021 13.18687267164015
ONEWEB-0406             
1 50486U 21132T   25082.87044129 -.00000007  00000+0 -51442-4 0  9992
2 50486  87.9072  64.9824 0001356  94.5629 265.5658 13.18687067163566
ONEWEB-0407             
1 50487U 21132U   25082.93999256  .00000032  00000+0  47675-4 0  9999
2 50487  87.9068  64.9574 0002072  88.9922 271.1447 13.18687147162223
ONEWEB-0409             
1 50488U 21132V   25082.79737328 -.00000426  00000+0 -12387-2 0  9993
2 50488  87.8802 110.8309 0001658 101.4937 258.6377 13.11417018156554
ONEWEB-0412             
1 50489U 21132W   25082.70129894 -.00000036  00000+0 -12295-3 0  9994
2 50489  87.9074  65.0182 0002364  88.4472 271.6931 13.18686856162283
ONEWEB-0413             
1 50490U 21132X   25082.93367013  .00000059  00000+0  11715-3 0  9997
2 50490  87.9074  64.9835 0002295  84.5456 275.5937 13.18686972162255
ONEWEB-0414             
1 50491U 21132Y   25082.91944504  .00000061  00000+0  12186-3 0  9998
2 50491  87.9068  64.9539 0002163  91.5249 268.6131 13.18686738163577
ONEWEB-0417             
1 50492U 21132Z   25083.45847877  .00000092  00000+0  20026-3 0  9990
2 50492  87.9077  64.8687 0001805  91.1623 268.9716 13.18686967163627
ONEWEB-0418             
1 50493U 21132AA  25082.93668092  .00000019  00000+0  14784-4 0  9997
2 50493  87.9071  64.9652 0001687  96.3294 263.8031 13.18689236162326
ONEWEB-0419             
1 50494U 21132AB  25082.87835094  .00000012  00000+0 -13636-5 0  9999
2 50494  87.9066  64.9838 0001612  85.6100 274.5216 13.18686268163521
ONEWEB-0420             
1 50495U 21132AC  25082.92101321  .00000042  00000+0  72982-4 0  9995
2 50495  87.9069  64.9844 0002137  80.7864 279.3509 13.18683986162237
ONEWEB-0421             
1 50496U 21132AD  25082.91470505  .00000088  00000+0  19027-3 0  9998
2 50496  87.9077  64.9729 0002225  91.1064 269.0324 13.18686849163575
ONEWEB-0424             
1 50497U 21132AE  25083.48060000  .00000034  00000+0  53723-4 0  9990
2 50497  87.9073  64.8525 0001483  79.0488 281.0811 13.18687804163651
ONEWEB-0426             
1 50498U 21132AF  25082.91153894  .00000103  00000+0  22931-3 0  9995
2 50498  87.9066  64.9722 0002045 105.6534 254.4824 13.18686747163537
ONEWEB-0427             
1 50499U 21132AG  25082.87201917 -.00000057  00000+0 -17791-3 0  9999
2 50499  87.9067  64.9613 0001751  91.2194 268.9139 13.18686966163568
ONEWEB-0429             
1 50500U 21132AH  25082.93524518  .00000020  00000+0  19076-4 0  9991
2 50500  87.9074  64.9717 0001985  81.0206 279.1151 13.18685287162241
ONEWEB-0430             
1 50501U 21132AJ  25083.37944699  .00000185  00000+0  43582-3 0  9997
2 50501  87.9073  64.8783 0001756  76.1630 283.9697 13.18686771163636
ONEWEB-0432             
1 50502U 21132AK  25082.87991475  .00000036  00000+0  57567-4 0  9990
2 50502  87.9069  64.9677 0001009  99.2359 260.8888 13.18688236162239
ONEWEB-0440             
1 50503U 21132AL  25082.86727850 -.00000008  00000+0 -53372-4 0  9995
2 50503  87.9074  64.9674 0002362  86.0600 274.0802 13.18687083163513
ONEWEB-0450             
1 50504U 21132AM  25082.93697402  .00000042  00000+0  73709-4 0  9995
2 50504  87.9073  64.9821 0002046  75.5979 284.5380 13.18686681162269
ONEWEB-0410             
1 51622U 22012A   25083.29547227  .00000034  00000+0  54742-4 0  9991
2 51622  87.9002  95.4554 0002258 130.2978 229.8351 13.17649988155741
ONEWEB-0411             
1 51623U 22012B   25083.49641260  .00000535  00000+0  14957-2 0  9994
2 51623  87.8830 125.9140 0001541  82.7503 277.3800 13.10371580151677
ONEWEB-0415             
1 51624U 22012C   25082.80587668  .00000638  00000+0  17912-2 0  9998
2 51624  87.8825 126.0604 0001711  90.5581 269.5742 13.10370886150306
ONEWEB-0416             
1 51625U 22012D   25082.81748660  .00000016  00000+0  82290-5 0  9995
2 51625  87.8829 126.0692 0001900  97.7575 262.3768 13.10370197150348
ONEWEB-0422             
1 51626U 22012E   25082.77405320  .00000047  00000+0  88611-4 0  9990
2 51626  87.9002  95.5653 0002565  79.0036 281.1384 13.17649449154492
ONEWEB-0423             
1 51627U 22012F   25082.76730323  .00000092  00000+0  20395-3 0  9998
2 51627  87.9004  95.5718 0002113  92.2601 267.8772 13.17650391154389
ONEWEB-0425             
1 51628U 22012G   25082.82744182 -.00000403  00000+0 -11910-2 0  9994
2 51628  87.8826 126.0412 0002133 107.2394 252.8967 13.10370736150347
ONEWEB-0428             
1 51629U 22012H   25083.03661227  .00000637  00000+0  17895-2 0  9992
2 51629  87.8832 126.0195 0002041  90.9881 269.1480 13.10371145151617
ONEWEB-0431             
1 51630U 22012J   25083.54108139 -.00000120  00000+0 -37880-3 0  9994
2 51630  87.8828 125.8975 0001827  78.7833 281.3500 13.10377159151743
ONEWEB-0434             
1 51631U 22012K   25083.05982834 -.00000421  00000+0 -12432-2 0  9992
2 51631  87.8831 126.0270 0002344 112.7116 247.4259 13.10370870151665
ONEWEB-0435             
1 51632U 22012L   25082.60998318 -.00000634  00000+0 -18524-2 0  9991
2 51632  87.8836 126.1088 0002274  88.4521 271.6867 13.10373559151582
ONEWEB-0436             
1 51633U 22012M   25082.45512990  .00000069  00000+0  14483-3 0  9994
2 51633  87.9002  95.6268 0002049  82.9389 277.1975 13.17649726154325
ONEWEB-0438             
1 51634U 22012N   25083.05153566 -.00000149  00000+0 -46180-3 0  9992
2 51634  87.8829 126.0218 0002027 103.0817 257.0537 13.10369246151689
ONEWEB-0439             
1 51635U 22012P   25082.82578051 -.00000452  00000+0 -13298-2 0  9997
2 51635  87.8831 126.0538 0002046  96.6912 263.4449 13.10369995150348
ONEWEB-0442             
1 51636U 22012Q   25082.75127582  .00000045  00000+0  82970-4 0  9990
2 51636  87.9004  95.6118 0001716 111.5036 248.6279 13.17649740154351
ONEWEB-0443             
1 51637U 22012R   25082.92253435  .00000126  00000+0  29099-3 0  9999
2 51637  87.9006  95.5907 0002246  97.1321 263.0066 13.17652110154422
ONEWEB-0444             
1 51638U 22012S   25083.50305038  .00000205  00000+0  55238-3 0  9994
2 51638  87.8824 125.9265 0002159  95.2496 264.8878 13.10370450151738
ONEWEB-0445             
1 51639U 22012T   25083.37189770 -.00000612  00000+0 -17886-2 0  9993
2 51639  87.8821 125.9114 0001823 100.2538 259.8795 13.10372405151712
ONEWEB-0446             
1 51640U 22012U   25082.81417155  .00000299  00000+0  82006-3 0  9990
2 51640  87.8831 126.0727 0001700  97.2891 262.8430 13.10369280150343
ONEWEB-0448             
1 51641U 22012V   25083.04821984 -.00000029  00000+0 -11921-3 0  9997
2 51641  87.8827 126.0256 0002055  98.1368 261.9993 13.10369842151630
ONEWEB-0449             
1 51642U 22012W   25083.51134219 -.00000173  00000+0 -53304-3 0  9999
2 51642  87.8822 125.9134 0002042 105.1005 255.0349 13.10369579151717
ONEWEB-0451             
1 51643U 22012X   25083.43891688 -.00000005  00000+0 -45804-4 0  9992
2 51643  87.8997  95.4218 0001995  97.8734 262.2624 13.17650023155733
ONEWEB-0452             
1 51644U 22012Y   25082.75380791  .00000040  00000+0  68562-4 0  9998
2 51644  87.9005  95.6159 0002237  98.7253 261.4132 13.17650311154359
